"displayName","contactName","Phone","reviewRating","numReviews","location","city","state","zip"
"Swell Homes","Anthony Pillinger","0438 388 892","4.8","30","Perth, Western Australia","Perth","WA","6163"
"Turrell Building Pty Ltd","Turrell Building Pty Ltd","(02) 9653 1003","4.9","77","Galston, New South Wales","Galston","NSW","2159"
"First Avenue Homes","Anthony Karlovic","(03) 9596 8536","4.9","17","Brighton, Victoria","Brighton","VIC","3186"
"McGarry Constructions Pty Limited","George McGarry","0405 812 517","5.0","25","Rozelle, New South Wales","Rozelle","NSW","2034"
"Nulook Homes","Nulook Homes","(08) 9349 7003","5.0","25","Balcatta, Western Australia","Balcatta","WA","6021"
"Everlong Constructions","Justin Robertson","0404 787 014","5.0","15","Glen Iris, Victoria","Glen Iris","VIC","3146"
"Lindon Homes Pty Ltd","Ashley Lindon","(07) 3823 5522","4.9","14","Capalada, Queensland","Capalada","QLD","4157"
"Real Living Homes","Ryan Sullivan","0417 762 876","4.9","32","Maroochydore, Queensland","Maroochydore","QLD","4558"
"iBuild Group Pty Ltd","Alan Salameh","(02) 8880 7912","4.9","18","Castle Hill, New South Wales","Castle Hill","NSW","2154"
"Jamie Shaw Building","Jamie Shaw","0431 103 661","5.0","21","Nowra, New South Wales","Nowra","NSW","2541"
"Horizon Homes","Denis Carroll","(02) 8880 5110","5.0","20","Kellyville, New South Wales","Kellyville","NSW","2155"
"Adenbrook Homes","","1300 086 272","4.9","38","Brisbane, Queensland","Brisbane","QLD","4102"
"Baddock Building","Baddock Building","0424 081 060","5.0","33","Sydney, New South Wales","Sydney","NSW","2087"
"Trentwood Homes","Jarrod","(02) 6056 5166","5.0","24","Wodonga, Victoria","Wodonga","VIC","3690"
"Clinton Built Pty Ltd","Clinton Meagher","0477 977 117","5.0","17","Kirrawee, New South Wales","Kirrawee","NSW","2232"
"Mintconstruct Pty Ltd","Geoffrey Symons","1300 858 355","5.0","24","Merrimac, Queensland","Merrimac","QLD","4226"
"Granny Flats Sydney NSW Pty Ltd","Serge Panayi","1300 205 007","4.9","23","Picnic Point, New South Wales","Picnic Point","NSW","2213"
"Quality First Constructions","Tim Lee","(07) 3186 0248","5.0","18","YAROOMBA, Queensland","YAROOMBA","QLD","4573"
"Symcorp  Building Services","Chris Symons","(07) 3062 8568","4.7","14","Burleigh Heads, Queensland","Burleigh Heads","QLD","4220"
"Skookom","Ian Simondson","(03) 9071 0175","5.0","19","Hobart, Tasmania","Hobart","TAS","7000"
"Kube Constructions","Andrew Siracusa","(03) 6169 1564","5.0","10","Malvern East, Victoria","Malvern East","VIC","3145"
"BIC Construction Pty Ltd","Brad Chapman","(02) 8074 3567","4.9","17","Randwick, New South Wales","Randwick","NSW","2031"
"BBH Projects Pty Ltd","Shane Boulter","0448 899 019","4.9","14","Balmoral, Queensland","Balmoral","QLD","4171"
"Broadwater Builds","Louis Gonzalez","(08) 6468 6384","5.0","21","City Beach, Western Australia","City Beach","WA","6015"
"Alpha Renovations","Abraham","1800 025 742","5.0","22","Sydney, New South Wales","Sydney","NSW","2170"
"Renotech Building Pty Ltd","Darius king","(02) 4312 8594","5.0","17","Bronte, New South Wales","Bronte","NSW","2024"
"Meadan Homes","","(02) 8766 0486","4.8","20","Castle Hill, New South Wales","Castle Hill","NSW","2154"
"Hall Group & Co.","","(02) 9158 6364","4.9","17","Waverley, New South Wales","Waverley","NSW","2024"
"Trentwood Homes","Jarrod","(02) 6056 5166","5.0","24","Wodonga, Victoria","Wodonga","VIC","3690"
"Ultima Building Group","Veronica Sparagis","(02) 8599 2291","5.0","20","Wallacia, New South Wales","Wallacia","NSW","2745"
"All Time Constructions","Grant Jefford","(02) 9051 0521","4.9","18","Annandale, New South Wales","Annandale","NSW","2038"
"Henarise Pty Ltd","Zenya Adderley","0402 064 204","4.9","16","Wamberal, New South Wales","Wamberal","NSW","NSW, 2260"
"Graff Design & Construction","Anya & Les Ziolek","(08) 6361 3298","5.0","17","Grange, South Australia","Grange","SA","5022"
"Quality First Constructions","Tim Lee","(07) 3186 0248","5.0","18","YAROOMBA, Queensland","YAROOMBA","QLD","4573"
"Built By Drew","Drew & Karena Hinman","0400 663 764","5.0","10","Canberra, Australian Capital Territory","Canberra","ACT","2614"
"dts builders","Drage Trajceski","0412 157 617","5.0","14","Brisbane, Queensland","Brisbane","QLD","4064"
"Thirdson Construction Pty Ltd","David James","(07) 3517 0165","5.0","19","Ipswich, Queensland","Ipswich","QLD","4304"
"Langford Jones Homes","Paul Langford Jones","(03) 8797 5405","4.4","15","Bentleigh East, Victoria","Bentleigh East","VIC","3165"
"Green Chip Constructions Pty Ltd","Nick","(02) 6188 7180","5.0","7","Sydney, New South Wales","Sydney","NSW","2107"
"Sydney Beach Homes","John Oxley","0414 562 730","4.8","18","Sydney","Sydney","","2099"
"Mindful Boutique Builders & Renovators Perth","Mindful Homes","0438 972 682","5.0","19","Ellenbrook, Western Australia","Ellenbrook","WA","6069"
"BCI Hawker","Stephen Hawker","0410 217 495","5.0","10","Kingscliff, New South Wales","Kingscliff","NSW","2487"
"JM Homes","Josh O'Sullivan","0422 442 271","5.0","17","Lawnton, Queensland","Lawnton","QLD","4501"
"Blue Point Building Services Pty Ltd","","(03) 6146 1518","5.0","13","Carrum Downs, Victoria","Carrum Downs","VIC","3201"
"Accurate Building and Construction","","0403 908 837","4.9","17","Coorparoo, Queensland","Coorparoo","QLD","4151"
"CAPITAL BUILDING","","0414 811 666","5.0","15","New South Wales","","NSW",""
"Norik Constructions Pty Ltd","Kiron Barnden","0422 271 750","5.0","15","Heathmont, Victoria","Heathmont","VIC","3135"
"Laggner Constructions Pty Ltd","Steve Laggner","0405 125 558","5.0","17","Canberra, Australian Capital Territory","Canberra","ACT","2615"
"Vital Build","Tim Lo Presti","0417 052 983","5.0","16","Melbourne, Victoria","Melbourne","VIC","3000"
"Sahlico Home Improvements","Ibrahim Sahlieh","0438 207 011","5.0","16","North Shore, New South Wales","North Shore","NSW","2000"
"Claridge Construction","Peter Claridge","(08) 8449 4490","5.0","13","Lockleys, South Australia","Lockleys","SA","5032"
"Westmade Homes","Michael Moffatt","(08) 7078 8244","5.0","11","Perth, Western Australia","Perth","WA","6107"
"Langford Jones Homes","Paul Langford Jones","(03) 8797 5405","4.4","15","Bentleigh East, Victoria","Bentleigh East","VIC","3165"
"Pacific Blue","Cameron Brown","0411 665 659","5.0","15","Maroochydore, Queensland","Maroochydore","QLD","4558"
"Main Layne Constructions","Andy","0407 737 077","5.0","15","Brisbane, Queensland","Brisbane","QLD","4010"
"Hume Building","","(02) 4630 8967","4.9","8","Wilton, New South Wales","Wilton","NSW","2571"
"Roebuck Concepts","Tom Roebuck","0477 333 386","5.0","11","Yaroomba, Queensland","Yaroomba","QLD","4573"
"MJH BUILDING SERVICES P/L","Murray Harris","(02) 4058 2553","5.0","12","Marrickville, New South Wales","Marrickville","NSW","2204"
"Hartl Constructions","Jordan Hartl","(02) 8766 0484","5.0","14","Sydney, New South Wales","Sydney","NSW","2154"
"Accurate Building and Construction","","0403 908 837","4.9","17","Coorparoo, Queensland","Coorparoo","QLD","4151"
"David Campbell Building Pty Ltd","David Campbell","(02) 8294 6216","5.0","12","Chatswood, New South Wales","Chatswood","NSW","2067"
"Beecraft Pty Ltd","Beecraft Pty Ltd","(02) 9450 1530","5.0","12","Sydney, New South Wales","Sydney","NSW","2084"
"Coastech Constructions","","","4.9","11","Boardbeach, Queensland","Boardbeach","QLD","4218"
"Campbell Builders","Michael Campbell","0421 966 139","5.0","13","Brisbane, Queensland","Brisbane","QLD","4116"
"Hezzelic Homes","Dwain Labuschewski","0412 895 580","5.0","8","Salisbury, Queensland","Salisbury","QLD","4107"
"Mondo Exclusive Homes","Ray Kershaw","(08) 9244 3160","5.0","9","Balcatta, Western Australia","Balcatta","WA",""
"Pembroke London Homes","Tony Bremner","0411 307 017","5.0","15","Perth, Western Australia","Perth","WA","6112"
"Elite Additions","Scott Meyers","0433 765 885","5.0","9","West Pennant Hills, New South Wales","West Pennant Hills","NSW","2125"
"LG BUILDING SERVICES","Leon Gruchy","0419 109 623","5.0","12","Wonga Park, Victoria","Wonga Park","VIC","3115"
"Anderson Homes Pty Ltd","Laurie Anderson","(03) 9068 6022","4.8","6","Richmond, Victoria","Richmond","VIC","3121"
"Boom Build","Ben Carty","(02) 8541 8125","5.0","6","Cromer, New South Wales","Cromer","NSW","2099"
"Create Homes","Pierre Comty","0410 292 469","4.9","12","Perth, Western Australia","Perth","WA","6160"
"P.Built Constructions","","(02) 8074 3531","5.0","10","Wadalba, New South Wales","Wadalba","NSW","2259"
"Esteem Constructions","","1300 005 600","5.0","6","Kellyville Ridge, New South Wales","Kellyville Ridge","NSW","2151"
"Sea Breeze Projects PTY LTD","Dave Wilson","0405 393 532","5.0","9","Menai","Menai","","2234"
"Hezzelic Homes","Dwain Labuschewski","0412 895 580","5.0","8","Salisbury, Queensland","Salisbury","QLD","4107"
"Advanced Craft Construction","Karl Higley","0420 313 844","4.9","12","Sydney, New South Wales","Sydney","NSW","2033"
"P.T.A.H","David Zupanc","(07) 2104 1915","5.0","11","Redbank Plains, Queensland, Queensland","Redbank Plains, Queensland","QLD","4301"
"Maxa Constructions","Felicity Maxa","0408 603 085","4.9","9","Cairns, Queensland","Cairns","QLD","4870"
"Elite Additions","Scott Meyers","0433 765 885","5.0","9","West Pennant Hills, New South Wales","West Pennant Hills","NSW","2125"
"Carty Homes","Matt Carty","99861518","5.0","5","Sydney, New South Wales","Sydney","NSW","2100"
"Streefland Homes and Developments","Tony Streefland","(03) 6344 9922","5.0","10","Invermay, Tasmania","Invermay","TAS","7248"
"Emwinn Constructions","Wade Woodcroft","0418 983 066","4.7","11","Kedron, Queensland","Kedron","QLD","4031"
"EcoUrbane Building Group","Mark Tassell","0414 912 367","5.0","9","Thebarton, South Australia","Thebarton","SA","5031"
"Saunders Building Company Pty Ltd","Kirby Saunders","0422 288 023","5.0","7","Alderley, Queensland","Alderley","QLD","4051"
"Suncity Homes","Andrew Seal","54471699","5.0","7","Noosaville, Queensland","Noosaville","QLD",""
"B Group Luxury Builders","Basem Bastawrous","0450 504 505","5.0","9","Peakhurst, New South Wales","Peakhurst","NSW","2210"
"Murphy Homes","","1300 010 191","5.0","6","Mooloolaba, Queensland","Mooloolaba","QLD","4557"
"iRenov8 Projects | Building It Better","Gregg Jowett","0419 996 334","4.9","9","Sydney, New South Wales","Sydney","NSW","2024"
"Provision Building Group","Bruce","(03) 4050 7662","5.0","6","Niddrie, Victoria","Niddrie","VIC","3042"
"Beecraft Pty Ltd","Beecraft Pty Ltd","(02) 9450 1530","5.0","12","Sydney, New South Wales","Sydney","NSW","2084"
"Mondo Exclusive Homes","Ray Kershaw","(08) 9244 3160","5.0","9","Balcatta, Western Australia","Balcatta","WA",""
"Atkinson Pontifex","David Pontifex","(03) 9585 1165","5.0","13","Melbourne, Victoria","Melbourne","VIC","3192"
"Sahlico Home Improvements","Ibrahim Sahlieh","0438 207 011","5.0","16","North Shore, New South Wales","North Shore","NSW","2000"
"Pembroke London Homes","Tony Bremner","0411 307 017","5.0","15","Perth, Western Australia","Perth","WA","6112"
"NAGEL building & carpentry","Jason Nagel","0421 753 287","4.9","14","Adelaide, South Australia","Adelaide","SA","5051"
"Amerex Renovations and Additions","Steve Burke","(08) 9227 1822","5.0","12","Perth, Western Australia","Perth","WA","6017"
"Wally Williams Constructions","Chris Williams","(07) 3349 7946","5.0","10","Mount Gravatt, Queensland","Mount Gravatt","QLD","4122"
"Jedabuild","Jeremy Warren","(02) 8294 2096","5.0","13","Maitland, New South Wales","Maitland","NSW","2320"
"Donnellan Constructions","Heath Donnellan","(03) 9772 7708","5.0","13","Chelsea, Victoria","Chelsea","VIC","3196"
"Boom Build","Ben Carty","(02) 8541 8125","5.0","6","Cromer, New South Wales","Cromer","NSW","2099"
"Create Homes","Pierre Comty","0410 292 469","4.9","12","Perth, Western Australia","Perth","WA","6160"
"P.Built Constructions","","(02) 8074 3531","5.0","10","Wadalba, New South Wales","Wadalba","NSW","2259"
"H Design Manage Build","Jay 0434 600 074 / David 0428 334 885","0434 600 074","5.0","10","Dulwich Hill, New South Wales","Dulwich Hill","NSW","2203"
"Hometek Renovations & Extensions","Support Team","1300 098 696","5.0","7","Vaucluse, New South Wales","Vaucluse","NSW","2030"
"Charleston","","96200000","5.0","7","Horsley Park, New South Wales","Horsley Park","NSW","2175"
"In-House Projects","Dan","(07) 4580 4653","5.0","8","Coorparoo, Queensland","Coorparoo","QLD","4151"
"Del Casa Homes","Darren Driussi","(02) 6624 8427","4.9","8","Goonellabah, New South Wales","Goonellabah","NSW","2480"
"Bleyer Constructions","Charles Bleyer","(02) 9158 6164","4.9","8","Beacon Hill, New South Wales","Beacon Hill","NSW","2100"
"Sanctuary 28","Don Cotterill","(07) 5598 8844","5.0","7","Currumbin Valley, Queensland","Currumbin Valley","QLD","4223"
"Pars Building Construction","Hamed Rod","(03) 8797 5612","5.0","9","Hampton, Victoria","Hampton","VIC","3188"
"Champness Builders","Andrew Champness","62604658","5.0","6","Canberra, Australian Capital Territory","Canberra","ACT","2600"
"Mint Homes & Renovations","Julian Russell","0401 885 180","4.9","8","Ashgrove, Queensland","Ashgrove","QLD","4060"
"Urban Property Developers","Branko Ocko","(03) 8797 2286","5.0","9","Ballarat, Victoria","Ballarat","VIC","3352"
"Roseleigh Homes","Lisa Dodenciu","(03) 5622 6777","5.0","8","Warragul, Victoria","Warragul","VIC","3142"
"Ampson Developments, Design & Construction.","Patrick & Mario Sultana","(03) 9111 5329","5.0","8","Flemington, Victoria","Flemington","VIC","3031"
"Hatch Constructions Group","","0427 545 594","5.0","4","Annandale, New South Wales","Annandale","NSW","2038"
"Building Homes Qld (Toowoomba)","Tim Kowitz","0477 154 398","4.9","9","Toowoomba, Queensland","Toowoomba","QLD","4350"
"Mid North Coast Drafting & Construction","","(02) 8074 5719","5.0","7","Taree, New South Wales","Taree","NSW","2430"
"Alamay Constructions Pty Ltd","Hassan El Hage","(02) 3813 8946","5.0","3","Mascot, New South Wales","Mascot","NSW","2020"
"Finney Construction","Damien Finney","(03) 9596 7556","5.0","9","Gardenvale, Victoria","Gardenvale","VIC","3185"
"Liebke Projects","Ben Liebke","0414 844 322","4.9","9","Sydney, New South Wales","Sydney","NSW","2000"
"Erban Development","Eric Diaz","(08) 9443 2149","5.0","9","Perth, Western Australia","Perth","WA","6000"
"Nabcon Constructions","Harry Naboulsi","0411 215 211","4.9","11","Sydney, New South Wales","Sydney","NSW","2000"
"Atrium Homes","Daniel Marcolina","(08) 6310 8888","5.0","4","Ardross, Western Australia","Ardross","WA","6153"
"Kestrel Building","Andre Ransom","0402 492 210","5.0","11","Newtown, New South Wales","Newtown","NSW","2042"
"G-LUX Builders","Jesse Glascott","0409 932 808","5.0","9","Melbourne, Victoria","Melbourne","VIC","3116"
"7 Towns","David Cunico","1800 786 967","5.0","10","South Yarra, Victoria","South Yarra","VIC","3141"
"Mayor Building Group Pty Ltd","Anthony Mayor","0415 930 195","5.0","11","Perth, Western Australia","Perth","WA","6155"
"Norm Wales Constructions Pty Ltd","Norm Wales","0427 722 604","5.0","11","Bundaberg, Queensland","Bundaberg","QLD","4670"
"Copperbrick Garages Pty Ltd","Marcus","(03) 9844 5743","5.0","11","North Warrandyte, Victoria","North Warrandyte","VIC","3113"
"J Co Constructions","J Co Constructions","(07) 4843 5494","5.0","6","Aura, Queensland","Aura","QLD","4551"
"BSM Building Pty Ltd","BSM Building","0407 379 199","4.9","9","Brisbane, Queensland","Brisbane","QLD","4000"
"FenRen","Steven Fender","(02) 8776 3428","4.9","8","Castle Hill, New South Wales","Castle Hill","NSW","2154"
"Construction Concierge","","(02) 6190 1708","5.0","6","Mosman, New South Wales","Mosman","NSW","2088"
"Angus Cowan Constructions Pty. Ltd","Angus Cowan","0417 751 521","5.0","7","Kenmore, Queensland","Kenmore","QLD","4069"
"Bleyer Constructions","Charles Bleyer","(02) 9158 6164","4.9","8","Beacon Hill, New South Wales","Beacon Hill","NSW","2100"
"A C Mellier Building","Andrew","0412 286 467","5.0","7","St George Basin, New South Wales","St George Basin","NSW","2540"
"iCheckit","","(08) 6271 0088","4.9","9","Perth, Western Australia","Perth","WA","6154"
"JLG Projects","James Algie","(07) 3485 0873","4.9","9","Brisbane, Queensland","Brisbane","QLD","4207"
"Period Extensions & Designs","","(03) 9882 5255","4.9","7","Camberwell, Victoria","Camberwell","VIC","3124"
"Everbuilt Pty Ltd","","1300 471 796","4.8","8","Sydney, New South Wales","Sydney","NSW","2217"
"Roseleigh Homes","Lisa Dodenciu","(03) 5622 6777","5.0","8","Warragul, Victoria","Warragul","VIC","3142"
"Dean Powell Constructions","Dean Powell","0412 182 819","5.0","9","Burdell, Queensland","Burdell","QLD","4815"
"Luna Constructions PTY LTD","John Anderson","0415 474 132","5.0","8","Noosa, Queensland","Noosa","QLD","4565"
"Sunstate Homes","Amir Taefi","(07) 3800 5644","4.9","8","Milton, Queensland","Milton","QLD","4064"
"Mass Constructions","Tim McRae","1300 585 287","5.0","6","Keysborough, Victoria","Keysborough","VIC","3173"
"EvoBuilt","Robby","0409 505 948","5.0","5","Belgrave, Victoria","Belgrave","VIC","3160"
"Stephensen Constructions Pty Ltd","Shane Stephensen","0422 549 390","5.0","5","Ipswich, Queensland","Ipswich","QLD","4305"
"Shoreview Building Group","","0434 978 913","5.0","5","MOUNT COLAH, New South Wales","MOUNT COLAH","NSW","2079"
"Chris Flemming Building Services","Chad Flemming","0409 605 570","5.0","7","Brookvale, New South Wales","Brookvale","NSW","2100"
"Frampton Builders","Rodney Frampton","0403 232 000","5.0","6","Brisbane, Queensland","Brisbane","QLD","4152"
"Newling Homes","Glenn","0409 986 945","5.0","6","Mt Moriac, Victoria","Mt Moriac","VIC","3240"
"North Residential Constructions","David Lombardo","(02) 9938 2229","5.0","8","Brookvale, New South Wales","Brookvale","NSW","2100"
"Exempla Homes","Ronnie Hanckel","0418 442 209","4.6","10","Dural, New South Wales","Dural","NSW","2158"
"Axcis Build","Michael Holzheimer & Kel Harvey","0438 717 424","5.0","8","Brisbane, Queensland","Brisbane","QLD","4151"
"J Holloway Builders","Jason Holloway","(03) 4050 7929","5.0","5","South Kingsville, Victoria","South Kingsville","VIC","3015"
"Skope Constructions","John Carolan","(02) 9659 8461","5.0","4","Sydney, New South Wales","Sydney","NSW","2000"
"Clancy Constructions","Shaun Clancy","(03) 9645 4938","5.0","7","Melbourne, Victoria","Melbourne","VIC","3207"
"Wade Builders","Jacob Wade","(03) 4050 7252","5.0","6","North Geelong, Victoria","North Geelong","VIC","3215"
"Acubuildnsw","Ibrahim Hanania","0451 515 502","5.0","8","Sydney, New South Wales","Sydney","NSW","2208"
"Allura Homes","Andrew Strachan","(02) 9420 4133","5.0","6","Lane Cove West, New South Wales","Lane Cove West","NSW","2066"
"BTM Constructions Pty Ltd","","0424 499 985","5.0","5","Mona Vale, New South Wales","Mona Vale","NSW","2103"
"Refresh Renovations Sydney - Michael Harich","Michael Harich","(02) 4063 1388","5.0","3","Frenchs Forest, New South Wales","Frenchs Forest","NSW","2086"
"Stephensen Constructions Pty Ltd","Shane Stephensen","0422 549 390","5.0","5","Ipswich, Queensland","Ipswich","QLD","4305"
"Angus Cowan Constructions Pty. Ltd","Angus Cowan","0417 751 521","5.0","7","Kenmore, Queensland","Kenmore","QLD","4069"
"A C Mellier Building","Andrew","0412 286 467","5.0","7","St George Basin, New South Wales","St George Basin","NSW","2540"
"Davey Constructions","Jared Davey","0410 821 189","5.0","6","Gold Coast, Queensland","Gold Coast","QLD","4220"
"Period Extensions & Designs","","(03) 9882 5255","4.9","7","Camberwell, Victoria","Camberwell","VIC","3124"
"Patterson Built Pty Ltd","Grant Patterson","(02) 8046 1311","5.0","4","Windsor, New South Wales","Windsor","NSW","2756"
"LM Projects","Lloyd Godfrey","0412 303 278","4.9","7","Caringbah, New South Wales","Caringbah","NSW","2229"
"Clive Kennedy Homes","Donna Kennedy","43892060","5.0","6","Tumbi Umbi, New South Wales","Tumbi Umbi","NSW","2261"
"Construct Group","","0408 053 935","4.9","7","Melbourne, Victoria","Melbourne","VIC","3001"
"BTM Constructions Pty Ltd","","0424 499 985","5.0","5","Mona Vale, New South Wales","Mona Vale","NSW","2103"
"Balmoral Homes","Craig Egginton","(02) 9651 6290","5.0","4","Sydney, New South Wales","Sydney","NSW","2158"
"Wansaplex Building Services","Charlie Wansa","(02) 8294 2083","5.0","4","Sydney, New South Wales","Sydney","NSW","2221"
"EvoBuilt","Robby","0409 505 948","5.0","5","Belgrave, Victoria","Belgrave","VIC","3160"
"Stephensen Constructions Pty Ltd","Shane Stephensen","0422 549 390","5.0","5","Ipswich, Queensland","Ipswich","QLD","4305"
"Shoreview Building Group","","0434 978 913","5.0","5","MOUNT COLAH, New South Wales","MOUNT COLAH","NSW","2079"
"Gerber Hoven Projects","","0451 998 008","5.0","4","Redfern, New South Wales","Redfern","NSW","2016"
"Dimpat","Bevan Dimeck","0431 065 949","5.0","5","Kew, Victoria","Kew","VIC","3101"
"Urban Trend Construction","Kenneth Ogilvie","(07) 4957 5000","5.0","4","Mackay, Queensland","Mackay","QLD","4740"
"Garth Chapman Queenslanders","Stephen Havas","(07) 3264 3304","5.0","6","Albany Creek, Queensland","Albany Creek","QLD","4035"
"Ryan Designer Homes","Pat and Petrina Ryan","0413 621 879","5.0","6","Mooloolaba, Queensland","Mooloolaba","QLD","4557"
"Crearter Constructions","Braden Carter","0402 249 601","5.0","6","Newport, New South Wales","Newport","NSW","2106"
"Constructive Building Pty Ltd","John Matthews","(02) 6190 0766","5.0","6","Mawson, Australian Capital Territory","Mawson","ACT","2607"
"Blue Water Building Co (SW) Pty Ltd","Anton Smith","97567993","5.0","6","Dunsborough, Western Australia","Dunsborough","WA","6281"
"RKW Constructions","Rod Watts","0418 423 649","4.9","7","sydney, New South Wales","sydney","NSW","2170"
"Prostruct Building Services (SA)","Rob Tricker","","5.0","6","Adelaide, South Australia","Adelaide","SA","5061"
"Patterson Built Pty Ltd","Grant Patterson","(02) 8046 1311","5.0","4","Windsor, New South Wales","Windsor","NSW","2756"
"Kustom Living","Greg Balmforth","0434 186 521","5.0","3","Melbourne, Victoria","Melbourne","VIC","3095"
"Gunn Building Projects","","0447 341 511","5.0","6","Mornington, Victoria","Mornington","VIC","3931"
"Custom Choice Builders","Mitchell Thomas","0412 936 713","5.0","6","Warrandyte, Victoria","Warrandyte","VIC","3113"
"Scully Constructions","","0421 885 771","5.0","6","Cromer, New South Wales","Cromer","NSW","2099"
"Gerber Hoven Projects","","0451 998 008","5.0","4","Redfern, New South Wales","Redfern","NSW","2016"
"Hensley Park Homes","","43330504","5.0","7","Warrenheip, Victoria","Warrenheip","VIC","3352"
"G & R Homes","","0419 780 222","5.0","7","Adelaide, South Australia","Adelaide","SA","5070"
"Green Anvil Co.","Samuel O'Flaherty","(02) 9516 5732","5.0","6","ST PETERS, New South Wales","ST PETERS","NSW","2044"
"ESP Developments","","(07) 3847 1855","4.9","7","Brisbane, Queensland","Brisbane","QLD","4151"
"M.C. Knowles Builder MASTER BUILT HOMES","Michael Knowles","(02) 8294 5435","5.0","6","Laurieton, New South Wales","Laurieton","NSW","2443"
"Purple Building Group","Adam Blumfield","0409 007 929","5.0","7","Yarra Glen, Victoria","Yarra Glen","VIC","3775"
"Davey Constructions","Jared Davey","0410 821 189","5.0","6","Gold Coast, Queensland","Gold Coast","QLD","4220"
"LM Projects","Lloyd Godfrey","0412 303 278","4.9","7","Caringbah, New South Wales","Caringbah","NSW","2229"
"Clive Kennedy Homes","Donna Kennedy","43892060","5.0","6","Tumbi Umbi, New South Wales","Tumbi Umbi","NSW","2261"
"Giro Construction","Antonio Macri","(02) 9905 4476","4.9","7","Frenchs Forest, New South Wales","Frenchs Forest","NSW","2086"
"Fidaro Pty Ltd","Bijan Zardbani","(03) 8594 4097","4.9","7","Mernda, Victoria","Mernda","VIC","3754"
"Breezeway House","Darren Scheuerle","(07) 3060 8344","5.0","3","Brisbane, Queensland","Brisbane","QLD","4075"
"Balmoral Homes","Craig Egginton","(02) 9651 6290","5.0","4","Sydney, New South Wales","Sydney","NSW","2158"
"Wansaplex Building Services","Charlie Wansa","(02) 8294 2083","5.0","4","Sydney, New South Wales","Sydney","NSW","2221"
"Seaquest Constructions","Ben Vanderpoel","0428 722 300","5.0","4","Bateau Bay, New South Wales","Bateau Bay","NSW","2261"
"Brent Builders","Bettina Brent","0408 517 312","5.0","5","Malvern East, Victoria","Malvern East","VIC","3145"
"Feature Point Construction","Ali Yucel","0400 233 219","5.0","6","Melbourne, Victoria","Melbourne","VIC","3023"
"Ryan Designer Homes","Pat and Petrina Ryan","0413 621 879","5.0","6","Mooloolaba, Queensland","Mooloolaba","QLD","4557"
"MK Building Solutions","Marco Klous","(08) 6188 5966","5.0","5","Balcatta, Western Australia","Balcatta","WA","6021"
"Modern Rustic","Piet and Vickie Baxter","0426 893 871","5.0","5","Cairns, Queensland","Cairns","QLD","4879"
"KEEDAH","Mike","(02) 9924 6466","5.0","5","Chatswood, New South Wales","Chatswood","NSW","2067"
"Spinelli Building","Brad Spinelli","0402 245 581","5.0","6","Albury, New South Wales","Albury","NSW","2640"
"Enhance Building","Erwin Fornasier","0409 749 127","5.0","5","Kogarah, New South Wales","Kogarah","NSW","2217"
"Tyler Builders","Ben Tyler","0417 413 267","5.0","6","Diddillibah, Queensland","Diddillibah","QLD","4559"
"WIP Residential","Richard Whipp","(07) 4055 1722","4.7","6","Stratford, Queensland","Stratford","QLD","4870"
"BCD Building Pty Ltd","Brendan","(02) 9158 6417","5.0","3","Normanhurst, New South Wales","Normanhurst","NSW","2076"
"Blue Build","Ryan Kelly","0421 475 592","5.0","6","Taren Point, New South Wales","Taren Point","NSW","2229"
"Elwood Building Co.","Aaron Ronaldson","0409 356 685","5.0","4","Brighton, Victoria","Brighton","VIC","3186"
"Calibre Building","Dave @ Nathan Waite","(03) 4050 7134","5.0","4","Northcote, Victoria","Northcote","VIC","3070"
"Cymraeg Construction","Alex Watkins","0449 804 633","5.0","4","Mornington Peninsula, Victoria","Mornington Peninsula","VIC","3212"
"Chris Elliott Builder","Chris Elliott","0414 511 367","5.0","5","Kenmore, Queensland","Kenmore","QLD","4305"
"W.W. Langer Constructions","Werner Langer","(08) 8272 6673","4.9","7","Adelaide, South Australia","Adelaide","SA","5062"
"TO THE MIL excellence in construction","Liam FLOOD","0425 259 002","5.0","5","Randwick, New South Wales","Randwick","NSW","2031"
"Blue Gum Granny Flats","William De Martrin Donos","0499 161 499","5.0","6","Malabar, New South Wales","Malabar","NSW","2036"
"Grantleigh Homes Pty Ltd","Paul Vale","(02) 4312 7428","5.0","6","Dural, New South Wales","Dural","NSW","2158"
"Spinelli Building","Brad Spinelli","0402 245 581","5.0","6","Albury, New South Wales","Albury","NSW","2640"
"Kalios Constructions","Taranga","40939946","5.0","6","Cairns, Queensland","Cairns","QLD","4881"
"Enhance Building","Erwin Fornasier","0409 749 127","5.0","5","Kogarah, New South Wales","Kogarah","NSW","2217"
"Swan and Sons Homes","David Swan","0409 054 983","5.0","6","Wynnum, Queensland","Wynnum","QLD","4178"
"Bayside Built","Bayside Built Developments","0431 434 436","5.0","5","Drummoyne, New South Wales","Drummoyne","NSW","2047"
"Scully Constructions","","0421 885 771","5.0","6","Cromer, New South Wales","Cromer","NSW","2099"
"Calibre Building","Dave @ Nathan Waite","(03) 4050 7134","5.0","4","Northcote, Victoria","Northcote","VIC","3070"
"Cordeaux Constructions","Jim Baker","0417 280 142","5.0","3","Berkeley, New South Wales","Berkeley","NSW","2506"
"Home Builders Pty Ltd","Daniel Petrone","0417 285 719","5.0","5","ROCKDALE, New South Wales","ROCKDALE","NSW","2216"
"CADSCO","Anthony Saroufin","0488 151 187","5.0","5","Sydney, New South Wales","Sydney","NSW","2000"
"Your Asset Renovations","Sophie Hendry","(07) 5444 3687","5.0","4","Mooloolaba, Queensland","Mooloolaba","QLD","4557"
"Duncan Constructions","Glen Duncan","83454334","5.0","4","Beverley, South Australia","Beverley","SA","5009"
"Building Dimensions","Piero Di Giovanni","0405 371 198","5.0","5","Perth, Western Australia","Perth","WA","6021"
"Zenith Homes","Angelo Marcuccio","(02) 9721 2966","5.0","5","Smithfield, New South Wales","Smithfield","NSW","2164"
"Leichhardt Group Pty Ltd","Angelo Di Conza","0412 122 070","5.0","5","Melbourne, Victoria","Melbourne","VIC","3204"
"Greendale Homes","","0418 996 569","5.0","5","Sydney, New South Wales","Sydney","NSW","2170"
"Its Built Design and Construction","Tom Crossling","0423 246 400","4.4","9","Sydney, New South Wales","Sydney","NSW","2000"
"Southern Construction Services","Charlie Kobayati","0414 608 070","5.0","3","Sydney, New South Wales","Sydney","NSW","2000"
"Quinn Homes","Kevin Quinn","(02) 9652 2001","5.0","5","Glenorie, New South Wales","Glenorie","NSW","2157"
"Mink Building Group","Daniel Minkus","0402 308 385","5.0","5","Collaroy, New South Wales","Collaroy","NSW","2148"
"Anthony McLucas Building","Monique McLucas","(07) 4154 7779","5.0","5","Bargara, Queensland","Bargara","QLD","4670"
"Abode New Homes","Abode New Homes","89329999","5.0","5","Palmerston City, Northern Territory","Palmerston City","NT","0832"
"Kinool Construction Pty. Ltd.","Andrew Pullar","(03) 4050 7064","5.0","3","Kooyong, Victoria","Kooyong","VIC","3144"
"Bespoke Family Homes","","(02) 3813 8538","5.0","3","Worrigee, New South Wales","Worrigee","NSW","2540"
"Muir Projects","Zach Muir","0413 511 653","5.0","4","Gymea Bay, New South Wales","Gymea Bay","NSW","2227"
"A Cut Above Constructions","Grant Nicholson","0414 247 268","5.0","5","Sydney, New South Wales","Sydney","NSW","2000"
"Weiss Built Pty Ltd","Brendan Weiss","0407 756 388","5.0","5","Peregian Beach, Queensland","Peregian Beach","QLD","4573"
"Smith & Sons Essendon","Joe DeBono","1300 787 577","5.0","6","Melbourne, Victoria","Melbourne","VIC","3040"
"Smith & Sons Beaconsfield","Hayden Loomes","1300 787 577","4.7","6","Tynong, Victoria","Tynong","VIC","3813"
"Ovens & King Builders","Lachlan Gales","(03) 5721 9648","5.0","5","Wangaratta, Victoria","Wangaratta","VIC","3677"
"Modern Rustic","Piet and Vickie Baxter","0426 893 871","5.0","5","Cairns, Queensland","Cairns","QLD","4879"
"AGN Builders","George Nionakis","1300 880 555","4.8","5","Cheltenham, Victoria","Cheltenham","VIC","3192"
"Classic Constructions","","(02) 6299 8467","5.0","5","Canberra, Australian Capital Territory","Canberra","ACT","2911"
"Bullfrog Constructions","Nathan Parker","1800 428 553","4.8","5","Redlands City, Queensland","Redlands City","QLD","4163"
"Rex Homes","Rex Homes","1300 710 935","4.7","6","Derrimut, Victoria","Derrimut","VIC","3030"
"Tyler Builders","Ben Tyler","0417 413 267","5.0","6","Diddillibah, Queensland","Diddillibah","QLD","4559"
"Reno & Retro","Geordie McCallum","0428 591 662","4.7","6","Fitzroy North, Victoria","Fitzroy North","VIC","3068"
"WIP Residential","Richard Whipp","(07) 4055 1722","4.7","6","Stratford, Queensland","Stratford","QLD","4870"
"Top Build Queensland","Paul McVeigh","(07) 3186 8744","5.0","4","Jindalee, Queensland","Jindalee","QLD","4074"
"BCD Building Pty Ltd","Brendan","(02) 9158 6417","5.0","3","Normanhurst, New South Wales","Normanhurst","NSW","2076"
"Your Asset Renovations","Sophie Hendry","(07) 5444 3687","5.0","4","Mooloolaba, Queensland","Mooloolaba","QLD","4557"
"Olympus Crest","Kon Anastasiou","0409 043 845","5.0","4","Sandringham, Victoria","Sandringham","VIC","3191"
"Core WA","Core WA - Home Renovations and Extension","(08) 9285 0215","5.0","4","Osborne Park, Western Australia","Osborne Park","WA","6017"
"Greenstone Building Solutions","Dean & Natalie Nisbet","0407 593 623","4.8","5","Shailer park, Queensland","Shailer park","QLD","4128"
"Master Constructions Australia","Master Constructions Australia","0458 728 979","5.0","3","Mount Barker, South Australia","Mount Barker","SA","5251"
"A Rolley and Sons","Lee Rolley","54996811","5.0","3","Caloundra, Queensland","Caloundra","QLD","4551"
"Greendale Homes","","0418 996 569","5.0","5","Sydney, New South Wales","Sydney","NSW","2170"
"Its Built Design and Construction","Tom Crossling","0423 246 400","4.4","9","Sydney, New South Wales","Sydney","NSW","2000"
"Upper Level Living","Angie Chandler","0433 994 504","5.0","4","Brisbane, Queensland","Brisbane","QLD","4306"
"Southern Construction Services","Charlie Kobayati","0414 608 070","5.0","3","Sydney, New South Wales","Sydney","NSW","2000"
"S&K Group","Paul Kegen","(03) 9068 9800","5.0","4","Malvern, Victoria","Malvern","VIC","3144"
"Elysium Designed","Lisa Gay","0484 633 622","5.0","4","Brisbane, Queensland","Brisbane","QLD","4101"
"Affinity Designer Homes","","(07) 4051 8866","4.8","4","Cairns, Queensland","Cairns","QLD","4870"
"Bespoke Family Homes","","(02) 3813 8538","5.0","3","Worrigee, New South Wales","Worrigee","NSW","2540"
"Alroy Building and Carpentry","","(07) 3088 9304","5.0","3","Kingscliffe, Queensland","Kingscliffe","QLD","4370"
"Vitalmark Constructions","Boris Lipengold","0432 123 077","5.0","4","MELBOURNE, Victoria","MELBOURNE","VIC","3162"
"LUXE Builders + Designers","Dean De Petra","0425 653 462","5.0","4","Bibra Lake, Western Australia","Bibra Lake","WA","6163"
"Building Dimensions","Piero Di Giovanni","0405 371 198","5.0","5","Perth, Western Australia","Perth","WA","6021"
"Aspire Constructions","Jake Kearns","(02) 7908 0282","5.0","4","Sydney, New South Wales","Sydney","NSW","2026"
"Zenith Homes","Angelo Marcuccio","(02) 9721 2966","5.0","5","Smithfield, New South Wales","Smithfield","NSW","2164"
"Chapman Built","Luke Chapman","0408 681 941","5.0","4","Canberra, Australian Capital Territory","Canberra","ACT","2605"
"PMH Building Co","Peter Handebo","0404 491 925","5.0","4","Woodlands, New South Wales","Woodlands","NSW","2575"
"Prescom Constructions","Simon Mannah","0415 287 701","5.0","4","Sydney, New South Wales","Sydney","NSW","2226"
"Durant Building Design Management","Troy Durante","0411 208 601","5.0","4","Gerringong, New South Wales","Gerringong","NSW","2534"
"Abode Inspirations","","(03) 9813 8833","5.0","4","Glen Iris, Victoria","Glen Iris","VIC","3146"
"Astor Homes","Leyna Kokenyesy","(02) 8603 9894","5.0","4","New South Wales","","NSW","2073"
"Anthony McLucas Building","Monique McLucas","(07) 4154 7779","5.0","5","Bargara, Queensland","Bargara","QLD","4670"
"Kinool Construction Pty. Ltd.","Andrew Pullar","(03) 4050 7064","5.0","3","Kooyong, Victoria","Kooyong","VIC","3144"
"Alroy Building and Carpentry","","(07) 3088 9304","5.0","3","Kingscliffe, Queensland","Kingscliffe","QLD","4370"
"B&K Developments NSW","","(02) 4384 4159","5.0","3","Berkeley Vale, New South Wales","Berkeley Vale","NSW","2261"
"KDA Build PTY LTD","","(03) 4050 9018","5.0","3","Murrumbeena, Victoria","Murrumbeena","VIC","3163"
"Richard Parsons Constructions","Richard Parsons","(07) 5522 8932","5.0","4","MUDGEERABA, Queensland","MUDGEERABA","QLD","4213"
"Horizon - Residential & Commercial Builders","David MOSES","(02) 9388 1050","5.0","3","Rose Bay, New South Wales","Rose Bay","NSW","2029"
"Bellissimo Homes","John Rocca","(08) 9249 3636","4.8","4","Malaga, Western Australia","Malaga","WA","6090"
"Nineteen 12 Pty Ltd","Jade Caban-Robinson","63888950","4.8","4","Hillarys, Western Australia","Hillarys","WA","6025"
"D Pearce Constructions Pty Ltd","Duayne Pearce","0438 040 980","5.0","3","Brisbane, Queensland","Brisbane","QLD","4020"
"Jemade Design and Construction","Kevin Ryan","0413 243 380","5.0","4","Helensvale, Queensland","Helensvale","QLD","4212"
"Smith & Sons Renovations & Extensions Capalaba","Gerald & Jane","1300 787 577","5.0","4","Brisbane, Queensland","Brisbane","QLD","4157"
"Sassall Group Pty Ltd","Mick Sassall","(02) 4284 5717","5.0","4","Corrimal, New South Wales","Corrimal","NSW","2518"
"Prescom Constructions","Simon Mannah","0415 287 701","5.0","4","Sydney, New South Wales","Sydney","NSW","2226"
"S&K Group","Paul Kegen","(03) 9068 9800","5.0","4","Malvern, Victoria","Malvern","VIC","3144"
"Inspired Residential","Mark Vella","0474 823 376","5.0","4","Claremont Meadows, New South Wales","Claremont Meadows","NSW","2747"
"Demardi","Michael Gagliardi","1300 903 260","5.0","3","Doncaster East, Victoria","Doncaster East","VIC","3109"
"Barbican Construction Group","","0434 103 389","5.0","3","Melbourne, Victoria","Melbourne","VIC","3132"
"Alroy Building and Carpentry","","(07) 3088 9304","5.0","3","Kingscliffe, Queensland","Kingscliffe","QLD","4370"
"Coastal Style Constructions","Brenton Howell","0438 783 321","5.0","4","Mooloolaba, Queensland","Mooloolaba","QLD","4557"
"Horizon - Residential & Commercial Builders","David MOSES","(02) 9388 1050","5.0","3","Rose Bay, New South Wales","Rose Bay","NSW","2029"
"Bellissimo Homes","John Rocca","(08) 9249 3636","4.8","4","Malaga, Western Australia","Malaga","WA","6090"
"Nineteen 12 Pty Ltd","Jade Caban-Robinson","63888950","4.8","4","Hillarys, Western Australia","Hillarys","WA","6025"
"D Pearce Constructions Pty Ltd","Duayne Pearce","0438 040 980","5.0","3","Brisbane, Queensland","Brisbane","QLD","4020"
"Sassall Group Pty Ltd","Mick Sassall","(02) 4284 5717","5.0","4","Corrimal, New South Wales","Corrimal","NSW","2518"
"Busby Homes","","1300 699 688","5.0","4","Fairfield, Victoria","Fairfield","VIC","3078"
"Prescom Constructions","Simon Mannah","0415 287 701","5.0","4","Sydney, New South Wales","Sydney","NSW","2226"
"Durant Building Design Management","Troy Durante","0411 208 601","5.0","4","Gerringong, New South Wales","Gerringong","NSW","2534"
"Elysium Designed","Lisa Gay","0484 633 622","5.0","4","Brisbane, Queensland","Brisbane","QLD","4101"
"Williams Designer Homes Pty Ltd","","(02) 4955 1003","4.8","4","West Wallsend, New South Wales","West Wallsend","NSW","2286"
"Dimona Constructions PTY LTD","Sari Aizik","0409 547 799","5.0","4","Glenhuntly, Victoria","Glenhuntly","VIC","3163"
"Perth Homes Construction WA","Eng Bander","0421 182 174","5.0","4","Kelmscott, Western Australia","Kelmscott","WA","6111"
"Barbican Construction Group","","0434 103 389","5.0","3","Melbourne, Victoria","Melbourne","VIC","3132"
"Alroy Building and Carpentry","","(07) 3088 9304","5.0","3","Kingscliffe, Queensland","Kingscliffe","QLD","4370"
"Olympus Crest","Kon Anastasiou","0409 043 845","5.0","4","Sandringham, Victoria","Sandringham","VIC","3191"
"Tricon Developments Pty Ltd","","(02) 9736 3433","4.3","10","Cabarita, New South Wales","Cabarita","NSW","2137"
"Richard Parsons Constructions","Richard Parsons","(07) 5522 8932","5.0","4","MUDGEERABA, Queensland","MUDGEERABA","QLD","4213"
"Harbourside Homes & Constructions","Harbourside Homes & Constructions Hotondo Homes","(02) 4454 2444","5.0","4","Ulladulla, New South Wales","Ulladulla","NSW","2538"
"Skilbeck Builders","Tracy Skilbeck","0418 102 378","5.0","4","Eastern View, Victoria","Eastern View","VIC","3231"
"Horizon - Residential & Commercial Builders","David MOSES","(02) 9388 1050","5.0","3","Rose Bay, New South Wales","Rose Bay","NSW","2029"
"D Pearce Constructions Pty Ltd","Duayne Pearce","0438 040 980","5.0","3","Brisbane, Queensland","Brisbane","QLD","4020"
"Jemade Design and Construction","Kevin Ryan","0413 243 380","5.0","4","Helensvale, Queensland","Helensvale","QLD","4212"
"Alatalo Bros","Anni Alatalo","(02) 6055 0180","5.0","3","Wodonga, Victoria","Wodonga","VIC","3690"
"Upper Level Living","Angie Chandler","0433 994 504","5.0","4","Brisbane, Queensland","Brisbane","QLD","4306"
"Jaylyn Constructions","Gary Trapnell","0417 604 475","5.0","4","Gold Coast, Queensland","Gold Coast","QLD","2486"
"Alps Constructions Pty Ltd","","0423 955 267","5.0","4","New Beith, Queensland","New Beith","QLD","4124"
"Affinity Designer Homes","","(07) 4051 8866","4.8","4","Cairns, Queensland","Cairns","QLD","4870"
"Building Republic","","0406 493 228","5.0","4","Glen Iris, Victoria","Glen Iris","VIC","3166"
"Barbican Construction Group","","0434 103 389","5.0","3","Melbourne, Victoria","Melbourne","VIC","3132"
"Summerwood Homes","Scott","0409 429 736","5.0","4","Sunshine West, Victoria","Sunshine West","VIC","3020"
"Seachange Builders","Jarrod Dean","0438 231 411","5.0","3","Coolum Beach, Queensland","Coolum Beach","QLD","4573"
"Watershed Building Group","David Hawkes","0433 280 816","5.0","4","Sydney, New South Wales","Sydney","NSW","2099"
"Nouveau Homes","Jonathon Slee","0419 740 551","5.0","3","Morphettville, South Australia","Morphettville","SA","5043"
"Brad Ross Homes","Brad Ross","61408592973","5.0","3","Perth, Western Australia","Perth","WA","6076"
"Martin Locke Homes","","1300 045 044","5.0","3","Townsville, Queensland","Townsville","QLD","4814"
"Manley Homes","Karen Manley","1300 599 995","5.0","4","Kenmore, Queensland","Kenmore","QLD","4069"
"SouthCoast Homes","South Coast Homes","(02) 4296 0120","5.0","5","Shell Cove, New South Wales","Shell Cove","NSW","2529"
"Jason Miles Builder","Jason Miles","0414 683 145","5.0","3","Bulli, New South Wales","Bulli","NSW","2516"
"Hedger Constructions Pty Ltd","Sharon Hedger","(03) 5772 2750","5.0","3","Alexandra, Victoria","Alexandra","VIC","3714"
"BTF Constructions","Brett Filsell","0433 590 645","5.0","3","Grange, South Australia","Grange","SA","5022"
"Monolith Constructions","Brad Moon","(02) 4757 1499","5.0","4","wentworth falls, New South Wales","wentworth falls","NSW","2782"
"Baker Building Group","Scott Baker","0438 138 155","5.0","3","Brighton North, Victoria","Brighton North","VIC","3186"
"Greenstruct","Jonty Smith","0400 056 522","5.0","3","Melbourne, Victoria","Melbourne","VIC","3103"
"Home Renovations Perth","","(08) 9248 6919","5.0","3","Morley, Western Australia","Morley","WA","6062"
"Eco-Essence Homes","Wayne Kelly","(07) 5688 7615","5.0","3","West Burleigh, Queensland","West Burleigh","QLD","4220"
"Kolak Living","Kelly Kolak","0410 799 002","5.0","3","Weston Creek, Australian Capital Territory","Weston Creek","ACT","2611"
"i2 Homes","Ian Hazan","95230655","5.0","3","Caulfield, Victoria","Caulfield","VIC","3161"
"Cassari","","(08) 9203 9006","5.0","3","Subiaco, Western Australia","Subiaco","WA","6008"
"Smith & Sons Renovations & Extensions Dee Why","Justin Burrows","0402 113 442","5.0","3","Dee Why, New South Wales","Dee Why","NSW","2099"
"P J Cook Building","","1300 752 665","4.7","3","West Gosford, New South Wales","West Gosford","NSW","2250"
"A J Corby Constructions Pty Ltd","Andrew","0438 413 436","5.0","3","Bowral, New South Wales","Bowral","NSW","2576"
"McArdle Projects Building","Sam","0433 036 312","5.0","3","Mallala, South Australia","Mallala","SA","5502"
"Grange Residential & Construction","Julia Green","(08) 6141 3292","5.0","3","Perth, Western Australia","Perth","WA","6000"
"Sheridan Building","Jarrod Sheridan","0421 304 096","5.0","3","Moonee Ponds, Victoria","Moonee Ponds","VIC","3039"
"Contour Projects Pty Ltd - Custom Home Builders","Graeme Davis","(08) 9444 5389","5.0","3","Osborne Park, Western Australia","Osborne Park","WA","6017"
"Kinghorn Constructions Pty LTD","Bryan Stokes","0424 936 812","5.0","3","Rosanna, Victoria","Rosanna","VIC","3084"
"CJC Constructions","","0430 173 934","5.0","4","Griffith, Australian Capital Territory","Griffith","ACT","2603"
"Matthew Brady Projects","Matt Brady","0408 875 932","5.0","4","Bucasia, Queensland","Bucasia","QLD","4750"
"SLD Projects","Anne-Maree La Delfa","0419 426 682","5.0","3","Denham Court, New South Wales","Denham Court","NSW","2565"
"Kolak Living","Kelly Kolak","0410 799 002","5.0","3","Weston Creek, Australian Capital Territory","Weston Creek","ACT","2611"
"Danark Constructions","Daniel Clark","(02) 4761 0433","4.7","3","Jamisontown, New South Wales","Jamisontown","NSW","2750"
"Vaughan Building Projects","Michael Vaughan","0413 602 696","5.0","3","Frankston Sth, Victoria","Frankston Sth","VIC","3199"
"Cassari","","(08) 9203 9006","5.0","3","Subiaco, Western Australia","Subiaco","WA","6008"
"Nikal Construction","Bob Mirkovic","1300 677 087","5.0","3","Gold Coast, Queensland","Gold Coast","QLD","4218"
"Webster Homes Pty Ltd","Bruce Webster","(07) 3806 5255","5.0","3","Brisbane, Queensland","Brisbane","QLD","4129"
"TradeBuilt Homes","TradeBuilt Homes","(03) 9070 5712","5.0","3","Mt Waverley, Victoria","Mt Waverley","VIC","3147"
"P J Cook Building","","1300 752 665","4.7","3","West Gosford, New South Wales","West Gosford","NSW","2250"
"JTDODD","Josh Dodd","0417 290 213","5.0","3","Ringwood North, Victoria","Ringwood North","VIC","3134"
"McArdle Projects Building","Sam","0433 036 312","5.0","3","Mallala, South Australia","Mallala","SA","5502"
"Grange Residential & Construction","Julia Green","(08) 6141 3292","5.0","3","Perth, Western Australia","Perth","WA","6000"
"Gold Coast Homes","Gary Hay","0414 833 710","4.7","3","Gold Coast, Queensland","Gold Coast","QLD","4217"
"Abor Developments","Ted Cheng","0412 021 072","5.0","3","Brisbane, Queensland","Brisbane","QLD","4068"
"PJP Homes Pty Ltd","Peter Phair","85217151","5.0","3","Woronora, New South Wales","Woronora","NSW","2232"
"Kinghorn Constructions Pty LTD","Bryan Stokes","0424 936 812","5.0","3","Rosanna, Victoria","Rosanna","VIC","3084"
"Tricon Developments Pty Ltd","","(02) 9736 3433","4.3","10","Cabarita, New South Wales","Cabarita","NSW","2137"
"Watershed Building Group","David Hawkes","0433 280 816","5.0","4","Sydney, New South Wales","Sydney","NSW","2099"
"Haimes Homes","Luke Haimes","38216822","5.0","4","Cleveland, Queensland","Cleveland","QLD","4163"
"Lighthouse Building","Matthew Adams","0414 012 090","5.0","3","Sydney, New South Wales","Sydney","NSW","2000"
"Ridge Master Builders Pty Ltd","Christopher Horsley","0437 105 860","5.0","3","Heidelberg West, Victoria","Heidelberg West","VIC","3081"
"P&G Builders","Peter Gillett","0407 697 845","5.0","3","Canberra, Australian Capital Territory","Canberra","ACT","2601"
"Arden Vale Homes Pty Ltd","Tim Waring","0409 261 815","4.7","3","Toowoomba, Queensland","Toowoomba","QLD","4350"
"Metcalfe Constructions","Kate Gallagher","(07) 4128 2423","5.0","4","Hervey Bay, Queensland","Hervey Bay","QLD","4655"
"Dunsborough Construction","Bruce Siney","97505001","5.0","3","Dunsborough, Western Australia","Dunsborough","WA","6281"
"Shelton Homes","Scott Shelton","0417 961 667","5.0","3","Toowoomba, Queensland","Toowoomba","QLD","4350"
"Alps Constructions Pty Ltd","","0423 955 267","5.0","4","New Beith, Queensland","New Beith","QLD","4124"
"GJ Gardner Homes Sydney North","GJ Gardner Homes Sydney North","(02) 9939 3339","5.0","3","Sydney, New South Wales","Sydney","NSW","2100"
"Wishbone Constructions","Ian Kwok","0423 455 848","5.0","3","Mittagong, New South Wales","Mittagong","NSW","2575"
"Morley Projects","Reece Morley","(07) 2000 4737","5.0","3","Burleigh Heads, Queensland","Burleigh Heads","QLD","4220"
"GPA Builders","George Ayoub","(02) 3813 8868","5.0","3","Burraneer, New South Wales","Burraneer","NSW","2230"
"Nutide Constructions Pty Ltd","Ray Toaldo","0413 998 548","5.0","3","Aspley, Queensland","Aspley","QLD","4034"
"Brendan Schmidt Constructions Pty Ltd","Brendan Schmidt","0408 874 332","5.0","3","Palmview, Queensland","Palmview","QLD","4553"
"GBD Constructions","Geoff Docker","(02) 9997 1823","5.0","3","Mona Vale, New South Wales","Mona Vale","NSW","2103"
"Manuka Blue Pty Ltd","Tremayne Todd","0439 994 419","5.0","3","Hampton","Hampton","","3188"
"Homes4Living","Jason Mangan","0438 427 263","5.0","3","Brisbane, Queensland","Brisbane","QLD","4121"
"Burg Built","Alex Fridburg","0410 503 523","5.0","3","Melbourne, Victoria","Melbourne","VIC","3000"
"Ross Building & Construction","Des Ross","0410 627 162","5.0","3","Narrabeen, New South Wales","Narrabeen","NSW","2101"
"McArdle Projects Building","Sam","0433 036 312","5.0","3","Mallala, South Australia","Mallala","SA","5502"
"Kodiak Projects","Mark Biggs","0405 344 408","5.0","3","Brisbane, Queensland","Brisbane","QLD","4059"
"Majestic Construction Company","","0484 367 480","5.0","3","Katoomba, New South Wales","Katoomba","NSW","2780"
"A Fox Constructions","","0410 691 714","5.0","3","Mitchelton, Queensland","Mitchelton","QLD","4053"
"Ultimo Developments","Solomon Rabinowitz","0414 491 422","5.0","3","Turramurra, New South Wales","Turramurra","NSW","2074"
"Stronghold Hire Scaffolding Services","Craig Pritchard","0415 489 080","5.0","3","Banksmeadow, New South Wales","Banksmeadow","NSW","2019"
"Toto Properties","Toto Properties","0422 648 599","4.7","3","Boronia, Victoria","Boronia","VIC","3155"
"Coast Life Constructions","Rob Williamson","(07) 4847 6741","5.0","3","Varsity lakes, Queensland","Varsity lakes","QLD","4227"
"Element Construction WA Pty Ltd","","(08) 9473 1610","4.7","3","Perth, Western Australia","Perth","WA","6053"
"ProStyle Building Group Pty Ltd","Craig McGovern","(02) 6282 0770","4.2","6","Phillip, Australian Capital Territory","Phillip","ACT","2606"
"PJH Constructions Australia Pty Ltd","Paul Harms","0428 624 734","5.0","3","Gold Caost, Queensland","Gold Caost","QLD","4220"
"Shane Marshall Building Pty Ltd","Shane Marshall","0402 452 865","5.0","3","Atherton, Queensland","Atherton","QLD","4883"
"Manuka Blue Pty Ltd","Tremayne Todd","0439 994 419","5.0","3","Hampton","Hampton","","3188"
"Austurban Homes","Kris McGillivray","(08) 9244 2288","4.3","3","Osborne Park, Western Australia","Osborne Park","WA","6017"
"Smith & Sons Doncaster","Matthew Braby","1300 787 577","4.7","3","Eltham, Victoria","Eltham","VIC","3095"
"Sherbrooke Design and Construction","","(03) 9594 8400","4.3","3","Mount Waverley, Victoria","Mount Waverley","VIC","3149"
"MOJO Homes","MOJO Homes","1300 006 656","4.0","3","Baulkham Hills, New South Wales","Baulkham Hills","NSW","2153"
"Hometec Industries Pty Ltd","Peter Di Iorio","(03) 9704 3600","5.0","3","Narre Warren, Victoria","Narre Warren","VIC","3805"
"Kurrajong Steel Homes Pty Ltd","Kurrajong Steel Homes","38250222","4.2","5","Cleveland, Queensland","Cleveland","QLD","4163"
"Jim Wilson Constructions","Jim Wilson","0414 891 806","5.0","3","Belrose, New South Wales","Belrose","NSW","2085"
"Adam Montefiore Contructions","Adam Montefiore","0437 115 295","5.0","3","Newcastle, New South Wales","Newcastle","NSW","2291"
"Ethics Construction","","0433 874 609","4.7","3","Canberra, Australian Capital Territory","Canberra","ACT","2914"
"Refresh Renovations Illawarra Cinzia Gagliardi","Cinzia Gagliardi","1800 931 816","4.3","3","Mount Pleasant, New South Wales","Mount Pleasant","NSW","2519"
"Howden Homes","Shane Howden","0419 303 549","4.0","8","Geelong West, Victoria","Geelong West","VIC","3218"
"Platinum Building Group","Platinum Building Group","0408 399 321","3.7","3","Melbourne, Victoria","Melbourne","VIC","3000"
"Craftman Design and Construct","joshua kuba","0418 644 354","3.8","4","sydney, New South Wales","sydney","NSW","2065"
"McLachlan Homes","McLachlan Homes","(07) 5498 9866","3.6","5","Morayfield, Queensland","Morayfield","QLD","4506"
"CVA Constructions Pty Ltd","CVA Constructions Pty Ltd","(02) 9534 1718","4.0","4","PEAKHURST, New South Wales","PEAKHURST","NSW","2210"
"Amrock Homes Pty Ltd","John Martin","(07) 2000 4747","5.0","1","Bli Bli, Queensland","Bli Bli","QLD","4560"
"Futureflip","","0433 054 677","0.0","0","Sydney, New South Wales","Sydney","NSW","2229"
"Imperium Glass Group Pty Ltd","Sales","(07) 3067 7000","4.0","3","Ormeau, Queensland","Ormeau","QLD","4208"
"Limitless Building","","(08) 6401 6346","5.0","1","Perth, Western Australia","Perth","WA","6000"
"Toscano Constructions","Toscano","1300 937 989","5.0","1","Brisbane, Queensland","Brisbane","QLD","4151"
"Finnes Building Group","Stuart Innes","(03) 6145 0079","0.0","0","Melbourne, Victoria","Melbourne","VIC","3018"
"Allchin Builders","","0408 275 524","0.0","0","Warragul, Victoria","Warragul","VIC","3820"
"Build Theory","","0428 255 956","0.0","0","Blackwood, South Australia","Blackwood","SA","5051"
"DB Build","Daniel Boots","0413 991 306","0.0","0","Mermaid Waters, Queensland","Mermaid Waters","QLD","4218"
"SFN Constructions","","(02) 9550 0911","5.0","1","Leichhardt, New South Wales","Leichhardt","NSW","2040"
